OBJECT_NAME,OBJECT_ID,EPOCH,MEAN_MOTION,ECCENTRICITY,INCLINATION,RA_OF_ASC_NODE,ARG_OF_PERICENTER,MEAN_ANOMALY,EPHEMERIS_TYPE,CLASSIFICATION_TYPE,NORAD_CAT_ID,ELEMENT_SET_NO,REV_AT_EPOCH,BSTAR,MEAN_MOTION_DOT,MEAN_MOTION_DDOT
STARLINK-32411,2024-184R,2026-06-15T00:59:41.475264,15.34394274,.0001084,53.1620,281.6366,83.0074,277.1051,0,U,61547,999,9341,.13481E-3,.418E-4,0
STARLINK-32424,2024-184S,2026-06-14T14:51:27.921024,15.34398950,.0001081,53.1608,283.2711,92.9192,267.1934,0,U,61548,999,9335,.6156E-5,-.168E-5,0
STARLINK-32389,2024-184T,2026-06-14T14:19:11.741088,15.30200615,.0001309,53.1614,283.8406,84.1928,275.9222,0,U,61549,999,9334,-.28506E-4,-.1203E-4,0
STARLINK-32476,2024-184U,2026-06-15T00:23:19.906368,15.34396182,.0001484,53.1604,281.4803,88.6852,271.4321,0,U,61550,999,9341,.59283E-4,.1627E-4,0
STARLINK-32366,2024-184V,2026-06-14T14:33:18.188064,15.34386142,.0000941,53.1618,283.1922,62.8237,297.2861,0,U,61551,999,9335,-.6113E-4,-.244E-4,0
QIANFAN-19,2024-185A,2026-06-15T03:53:34.658016,14.14475153,.0009209,88.9841,56.8048,75.0924,285.1282,0,U,61552,999,9573,.17963E-3,.358E-5,0
QIANFAN-20,2024-185B,2026-06-15T03:02:33.916416,14.09018982,.0007452,88.9837,57.3159,107.4346,252.7653,0,U,61553,999,9545,.24657E-3,.441E-5,0
QIANFAN-21,2024-185C,2026-06-15T03:51:09.835200,14.22852760,.0012535,88.9757,55.3762,115.4903,244.7587,0,U,61554,999,9619,.21242E-3,.492E-5,0
QIANFAN-22,2024-185D,2026-06-15T03:04:59.339712,13.86393813,.0007438,88.9823,59.0411,135.4547,224.7224,0,U,61555,999,9448,.20993E-3,.256E-5,0
QIANFAN-23,2024-185E,2026-06-15T03:48:41.736096,14.16500051,.0009877,88.9833,56.5281,82.0059,278.2249,0,U,61556,999,9585,.16135E-3,.335E-5,0
QIANFAN-24,2024-185F,2026-06-15T03:32:33.857376,14.24068399,.0011609,88.9817,55.6350,62.5023,297.7348,0,U,61557,999,9626,.20272E-3,.481E-5,0
QIANFAN-25,2024-185G,2026-06-15T01:10:46.342272,14.06075458,.0012354,88.9830,57.3271,111.2082,249.0421,0,U,61558,999,9540,.21698E-3,.37E-5,0
QIANFAN-26,2024-185H,2026-06-15T03:09:29.851200,13.77912229,.000597,88.9830,59.8446,152.3599,207.7886,0,U,61559,999,9406,.21674E-3,.23E-5,0
QIANFAN-27,2024-185J,2026-06-15T04:21:28.370304,14.27535784,.0009411,88.9826,55.3193,53.7257,306.4805,0,U,61560,999,9647,.13652E-3,.35E-5,0
QIANFAN-28,2024-185K,2026-06-15T03:12:10.044576,14.28382434,.0009275,88.9845,55.3370,52.3223,307.8811,0,U,61561,999,9649,.23211E-3,.595E-5,0
QIANFAN-29,2024-185L,2026-06-15T03:36:20.259936,13.51073081,.000807,88.9805,62.2459,231.0692,128.9740,0,U,61562,999,9269,.13807E-3,.101E-5,0
QIANFAN-30,2024-185M,2026-06-15T01:01:21.694080,13.50051277,.0005823,88.9825,61.8528,212.6537,147.4255,0,U,61563,999,9293,.22806E-3,.157E-5,0
QIANFAN-31,2024-185N,2026-06-15T02:34:25.765824,13.58038901,.0005785,88.9808,61.3555,195.8928,164.2047,0,U,61564,999,9318,.20554E-3,.161E-5,0
QIANFAN-32,2024-185P,2026-06-15T03:09:57.034368,13.50786102,.0007561,88.9866,62.0334,250.9215,109.1117,0,U,61565,999,9293,.81502E-4,.64E-6,0
QIANFAN-33,2024-185Q,2026-06-15T04:14:04.068672,13.96703027,.0009414,88.9821,58.2415,102.8837,257.3392,0,U,61566,999,9490,.20824E-3,.302E-5,0
QIANFAN-34,2024-185R,2026-06-15T04:04:21.533952,14.02467743,.0007925,88.9797,57.5619,104.1079,256.0982,0,U,61567,999,9520,.18296E-3,.295E-5,0
QIANFAN-35,2024-185S,2026-06-15T04:22:39.194112,14.28267691,.0008348,88.9825,55.2271,51.2939,308.9001,0,U,61568,999,9650,.21308E-3,.546E-5,0
QIANFAN-36,2024-185T,2026-06-15T01:10:02.464032,13.55634878,.0004559,88.9800,61.8351,214.1159,145.9703,0,U,61569,999,9289,.12171E-3,.97E-6,0
GAOFEN-12 05,2024-186A,2026-06-15T04:16:23.018016,14.80956133,.0000778,97.9100,174.3465,71.2462,288.8835,0,U,61571,999,8904,.47512E-4,.316E-5,0
STARLINK-11356 [DTC],2024-187A,2026-06-15T04:34:32.261952,15.69702673,.0000834,53.1581,175.6301,77.6230,282.4881,0,U,61574,999,9609,.63436E-5,.18E-5,0
STARLINK-11376 [DTC],2024-187B,2026-06-15T04:27:28.648800,15.69692992,.0001261,53.1601,175.6076,106.3145,253.8011,0,U,61575,999,9601,.27873E-4,.2787E-4,0
STARLINK-11372 [DTC],2024-187C,2026-06-15T04:20:22.853184,15.69719393,.0000749,53.1591,175.5625,47.4836,312.6245,0,U,61576,999,9606,.71865E-4,.813E-4,0
STARLINK-11375 [DTC],2024-187D,2026-06-15T04:13:21.192672,15.69683578,.0001253,53.1577,175.5363,50.5231,309.5898,0,U,61577,999,9606,.23799E-4,.2292E-4,0
STARLINK-11285 [DTC],2024-187E,2026-06-15T04:06:17.068032,15.69695013,.0001062,53.1587,175.5031,87.5959,272.5181,0,U,61578,999,9601,.17874E-4,.1576E-4,0
STARLINK-11275 [DTC],2024-187F,2026-06-14T08:07:19.190784,15.69710957,.00010592,53.1585,179.5499,88.5904,271.5235,0,U,61579,999,9588,.10130792E-4,.639E-5,0
STARLINK-11342 [DTC],2024-187G,2026-06-14T08:00:15.381504,15.69710676,.00009808,53.1584,179.5114,57.4227,302.6886,0,U,61580,999,9598,.7120569E-5,.274E-5,0
STARLINK-11374 [DTC],2024-187H,2026-06-14T07:53:20.214816,15.69710994,.00009774,53.1585,180.2111,115.2195,244.8925,0,U,61581,999,9597,.11416798E-4,.795E-5,0
STARLINK-11373 [DTC],2024-187J,2026-06-14T07:46:16.993920,15.69703763,.00012939,53.1586,180.1857,87.0783,273.0383,0,U,61582,999,9592,-.3199973E-5,-.976E-5,0
STARLINK-11368 [DTC],2024-187K,2026-06-14T18:21:00.014400,15.69708862,.00012492,53.1598,177.9577,70.7977,289.3176,0,U,61583,999,9594,.658367E-5,.209E-5,0
STARLINK-11370 [DTC],2024-187L,2026-06-14T18:13:56.342496,15.69704863,.00008933,53.1575,177.9227,66.8402,293.2710,0,U,61584,999,9599,.149103E-6,-.57E-5,0
STARLINK-11361 [DTC],2024-187M,2026-06-14T18:06:51.624288,15.69771623,.00012198,53.1565,177.8901,111.1491,248.9658,0,U,61585,999,9599,.85590488E-3,.104688E-2,0
STARLINK-11360 [DTC],2024-187N,2026-06-15T04:41:36.417696,15.69697257,.0000733,53.1585,175.6600,94.9799,265.1303,0,U,61586,999,9611,-.14625E-5,-.765E-5,0
STARLINK-32353,2024-187P,2026-06-15T04:40:20.174016,15.34413035,.000184,53.1615,330.6037,357.0286,3.0706,0,U,61587,999,9397,.18491E-2,.62647E-3,0
STARLINK-32325,2024-187Q,2026-06-14T18:11:00.286080,15.34397890,.0001336,53.1612,332.8607,106.9971,253.1179,0,U,61588,999,9396,.4220516E-4,.105E-4,0
STARLINK-32416,2024-187R,2026-06-15T02:47:23.263008,15.34405046,.0000989,53.1600,316.6191,97.4305,262.6810,0,U,61589,999,9422,-.4598E-4,-.1929E-4,0
STARLINK-32413,2024-187S,2026-06-15T03:51:57.343104,15.34394936,.0001099,53.1604,331.1031,108.1813,251.9310,0,U,61590,999,9402,.23075E-4,.403E-5,0
STARLINK-32409,2024-187T,2026-06-15T03:23:44.566656,15.34400944,.0001089,53.1627,316.7751,86.4221,273.6906,0,U,61591,999,9422,.13815E-4,.91E-6,0
STARLINK-32422,2024-187U,2026-06-15T03:05:34.355040,15.34392504,.0000906,53.1613,316.6882,87.7386,272.3720,0,U,61592,999,9422,.3212E-4,.709E-5,0
STARLINK-32397,2024-187V,2026-06-15T03:32:56.702400,15.34399270,.0001132,53.1620,328.8913,67.9236,292.1887,0,U,61593,999,9405,.10675E-4,-.15E-6,0
ONEWEB-0015,2024-188A,2026-06-15T02:19:27.403680,13.11417861,.0002212,87.8887,21.5095,74.4982,285.6390,0,U,61594,999,8418,-.15483E-2,-.536E-5,0
ONEWEB-0687,2024-188B,2026-06-14T22:51:52.897248,13.17648322,.0002347,87.9129,6.3212,87.7676,272.3724,0,U,61595,999,8560,.86069E-4,.46E-6,0
ONEWEB-0688,2024-188C,2026-06-15T01:22:32.505024,13.17648325,.0002757,87.9128,6.3004,66.3884,293.7537,0,U,61596,999,8561,-.66151E-4,-.13E-6,0
ONEWEB-0689,2024-188D,2026-06-15T03:08:18.095136,13.11417450,.0002055,87.8902,21.4602,91.6501,268.4862,0,U,61597,999,8418,.12804E-2,.467E-5,0
ONEWEB-0690,2024-188E,2026-06-15T03:22:57.279072,13.11414189,.0001267,87.8895,21.4700,70.9895,289.1370,0,U,61598,999,8436,.46389E-3,.177E-5,0
ONEWEB-0691,2024-188F,2026-06-15T03:15:38.617632,13.11415456,.0002156,87.8905,21.3795,79.7304,280.4067,0,U,61599,999,8421,.96575E-3,.355E-5,0
ONEWEB-0692,2024-188G,2026-06-15T03:44:54.759840,13.11414277,.0001803,87.8886,21.4889,111.1778,248.9543,0,U,61600,999,8420,-.1069E-2,-.366E-5,0
ONEWEB-0693,2024-188H,2026-06-15T01:39:32.740416,13.17647855,.0001356,87.9123,6.3180,64.7145,295.4127,0,U,61601,999,8560,.78199E-4,.43E-6,0
ONEWEB-0695,2024-188J,2026-06-15T03:10:45.464160,13.11415272,.0002036,87.8886,21.4857,100.1267,260.0091,0,U,61602,999,8419,.1265E-2,.461E-5,0
ONEWEB-0697,2024-188K,2026-06-15T03:57:06.960960,13.11416759,.0001712,87.8886,21.4698,110.3525,249.7787,0,U,61603,999,8418,-.19654E-2,-.684E-5,0
ONEWEB-0698,2024-188L,2026-06-15T03:25:23.506752,13.11414071,.0000836,87.8885,21.4881,116.8337,243.2877,0,U,61604,999,8420,.19117E-3,.8E-6,0
ONEWEB-0699,2024-188M,2026-06-15T03:41:33.906624,13.10376126,.0001549,87.8839,36.6713,103.5330,256.5970,0,U,61605,999,8304,.651E-3,.24E-5,0
ONEWEB-0700,2024-188N,2026-06-15T03:43:57.311616,13.10376322,.0001944,87.8855,36.5795,103.3764,256.7581,0,U,61606,999,8303,.10392E-2,.375E-5,0
ONEWEB-0701,2024-188P,2026-06-15T04:07:51.972384,13.10371937,.0001562,87.8837,36.6666,110.6726,249.4569,0,U,61607,999,8304,.17676E-2,.63E-5,0
ONEWEB-0702,2024-188Q,2026-06-15T02:41:27.067776,13.11420101,.0001998,87.8904,21.3997,116.0706,244.0628,0,U,61608,999,8421,.88456E-3,.326E-5,0
ONEWEB-0704,2024-188R,2026-06-15T03:51:08.114976,13.10374722,.0002163,87.8844,36.6586,112.5557,247.5800,0,U,61609,999,8302,.16224E-2,.579E-5,0
ONEWEB-0705,2024-188S,2026-06-15T03:58:17.980032,13.10378333,.0002634,87.8845,36.6630,99.1568,260.9857,0,U,61610,999,7519,.21509E-2,.764E-5,0
ONEWEB-0706,2024-188T,2026-06-15T03:36:46.682784,13.10376979,.0002051,87.8838,36.6713,99.7105,260.4254,0,U,61611,999,8311,.31183E-3,.122E-5,0
ONEWEB-0707,2024-188U,2026-06-15T03:46:20.911872,13.10375951,.0001972,87.8843,36.6637,99.9049,260.2301,0,U,61612,999,8305,.1219E-2,.438E-5,0
ONEWEB-0708,2024-188V,2026-06-15T04:12:38.810016,13.10371021,.0002362,87.8831,36.6785,84.1160,276.0236,0,U,61613,999,8303,.1638E-2,.584E-5,0
TIANPING 3A-01,2024-189A,2026-06-15T02:43:37.820352,15.00991346,.0002174,97.5196,186.4068,74.4421,285.7043,0,U,61614,999,9017,.22508E-3,.2815E-4,0
TIANPING 3B-01,2024-189B,2026-06-15T04:18:50.691168,15.00964851,.000256,97.5179,186.3765,55.5137,304.6329,0,U,61615,999,9014,.17034E-3,.2115E-4,0
